KUIPER-00160            
1 67765U 26030B   26068.76407567  .00036682  00000+0  10486-2 0  9991
2 67765  51.8805 218.8175 0005273  54.1950 305.9525 15.35623214  5100
KUIPER-00177            
1 67766U 26030C   26068.74934022  .00037280  00000+0  10590-2 0  9992
2 67766  51.8832 218.7283 0006534 338.9048  21.1668 15.35805147  5104
KUIPER-00178            
1 67767U 26030D   26068.63574693  .00024464  00000+0  70511-3 0  9995
2 67767  51.8828 219.4634 0006451  46.2779 313.8741 15.35571325  5084
KUIPER-00180            
1 67768U 26030E   26068.87205543  .00501298  00000+0  14994-1 0  9993
2 67768  51.8828 218.7769 0016787  64.4242 295.8475 15.31833915  5115
KUIPER-00197            
1 67769U 26030F   26068.42652515  .00048662  00000+0  13526-2 0  9992
2 67769  51.8831 220.3144 0001601  67.2198 292.8958 15.36379862  5053
KUIPER-00198            
1 67770U 26030G   26068.62744222  .00033885  00000+0  95567-3 0  9990
2 67770  51.8806 219.4038 0003583  35.8948 324.2279 15.36089150  5080
KUIPER-00199            
1 67771U 26030H   26068.84924475  .00034812  00000+0  10340-2 0  9991
2 67771  51.8811 218.6320 0010842  59.6620 300.5437 15.34402964  5116
KUIPER-00200            
1 67772U 26030J   26068.67647234  .00025755  00000+0  70619-3 0  9990
2 67772  51.8819 218.9881 0001049 264.9914  95.0953 15.37115765  5095
KUIPER-00203            
1 67773U 26030K   26068.83334490 -.01917252  00000+0 -11897+0 0  9990
2 67773  51.8860 219.4456 0011614  62.5891 166.2530 15.12749958  3675
KUIPER-00205            
1 67774U 26030L   26068.68740929  .00025239  00000+0  70745-3 0  9995
2 67774  51.8813 219.0576 0003255  20.5074 339.6043 15.36438333  5093
KUIPER-00208            
1 67775U 26030M   26068.67231509  .00043852  00000+0  13883-2 0  9994
2 67775  51.8846 219.6993 0015525  57.3146 302.9333 15.32208734  5080
KUIPER-00209            
1 67776U 26030N   26068.61786546  .00035298  00000+0  11963-2 0  9997
2 67776  51.8838 220.0775 0012191  59.1967 301.0215 15.30161950  5077
